RADARSAT-2              
1 32382U 07061A   26197.84540166  .00000001  00000+0  17376-4 0  9999
2 32382  98.5778 204.3545 0001317  84.2019 275.9313 14.29983392970199
